[{"OBJECT_NAME":"FENGYUN 1C DEB","OBJECT_ID":"1999-025EDL","EPOCH":"2026-04-24T12:02:06.361728","MEAN_MOTION":14.23941664,"ECCENTRICITY":0.00341985,"INCLINATION":99.2447,"RA_OF_ASC_NODE":33.881,"ARG_OF_PERICENTER":80.4204,"MEAN_ANOMALY":280.0835,"EPHEMERIS_TYPE":0,"CLASSIFICATION_TYPE":"U","NORAD_CAT_ID":37028,"ELEMENT_SET_NO":999,"REV_AT_EPOCH":62364,"BSTAR":0.0012171879,"MEAN_MOTION_DOT":2.761e-5,"MEAN_MOTION_DDOT":0},{"OBJECT_NAME":"FENGYUN 1C DEB","OBJECT_ID":"1999-025EDU","EPOCH":"2026-04-24T16:53:10.691808","MEAN_MOTION":14.0373222,"ECCENTRICITY":0.0124029,"INCLINATION":98.7242,"RA_OF_ASC_NODE":107.033,"ARG_OF_PERICENTER":42.605,"MEAN_ANOMALY":318.4658,"EPHEMERIS_TYPE":0,"CLASSIFICATION_TYPE":"U","NORAD_CAT_ID":37036,"ELEMENT_SET_NO":999,"REV_AT_EPOCH":65613,"BSTAR":0.00030675199,"MEAN_MOTION_DOT":4.75e-6,"MEAN_MOTION_DDOT":0},{"OBJECT_NAME":"FENGYUN 1C DEB","OBJECT_ID":"1999-025EEA","EPOCH":"2026-04-14T02:25:41.964096","MEAN_MOTION":14.80615052,"ECCENTRICITY":0.00475488,"INCLINATION":98.5931,"RA_OF_ASC_NODE":236.9562,"ARG_OF_PERICENTER":4.4205,"MEAN_ANOMALY":355.7416,"EPHEMERIS_TYPE":0,"CLASSIFICATION_TYPE":"U","NORAD_CAT_ID":37042,"ELEMENT_SET_NO":999,"REV_AT_EPOCH":74605,"BSTAR":0.00095541732,"MEAN_MOTION_DOT":7.42e-5,"MEAN_MOTION_DDOT":0},{"OBJECT_NAME":"FENGYUN 1C DEB","OBJECT_ID":"1999-025EEC","EPOCH":"2026-04-25T17:28:33.316032","MEAN_MOTION":13.72469317,"ECCENTRICITY":0.0504498,"INCLINATION":98.9607,"RA_OF_ASC_NODE":218.6079,"ARG_OF_PERICENTER":165.8885,"MEAN_ANOMALY":195.6977,"EPHEMERIS_TYPE":0,"CLASSIFICATION_TYPE":"U","NORAD_CAT_ID":37044,"ELEMENT_SET_NO":999,"REV_AT_EPOCH":85695,"BSTAR":0.0027951,"MEAN_MOTION_DOT":6.388e-5,"MEAN_MOTION_DDOT":0},{"OBJECT_NAME":"FENGYUN 1C DEB","OBJECT_ID":"1999-025EEE","EPOCH":"2026-04-15T07:11:18.590208","MEAN_MOTION":14.25295671,"ECCENTRICITY":0.00486578,"INCLINATION":98.5355,"RA_OF_ASC_NODE":121.2808,"ARG_OF_PERICENTER":305.9426,"MEAN_ANOMALY":53.7244,"EPHEMERIS_TYPE":0,"CLASSIFICATION_TYPE":"U","NORAD_CAT_ID":37046,"ELEMENT_SET_NO":999,"REV_AT_EPOCH":65941,"BSTAR":0.00041045868,"MEAN_MOTION_DOT":9.35e-6,"MEAN_MOTION_DDOT":0},{"OBJECT_NAME":"FENGYUN 1C DEB","OBJECT_ID":"1999-025EEF","EPOCH":"2026-04-20T08:43:01.312896","MEAN_MOTION":13.84130932,"ECCENTRICITY":0.02327148,"INCLINATION":99.1231,"RA_OF_ASC_NODE":164.7183,"ARG_OF_PERICENTER":228.6776,"MEAN_ANOMALY":129.4145,"EPHEMERIS_TYPE":0,"CLASSIFICATION_TYPE":"U","NORAD_CAT_ID":37047,"ELEMENT_SET_NO":999,"REV_AT_EPOCH":63862,"BSTAR":0.0018916447,"MEAN_MOTION_DOT":2.555e-5,"MEAN_MOTION_DDOT":0},{"OBJECT_NAME":"FENGYUN 1C DEB","OBJECT_ID":"1999-025EEG","EPOCH":"2026-04-21T10:20:04.155360","MEAN_MOTION":13.65249113,"ECCENTRICITY":0.02532158,"INCLINATION":98.8751,"RA_OF_ASC_NODE":326.9695,"ARG_OF_PERICENTER":169.7737,"MEAN_ANOMALY":312.992,"EPHEMERIS_TYPE":0,"CLASSIFICATION_TYPE":"U","NORAD_CAT_ID":37048,"ELEMENT_SET_NO":999,"REV_AT_EPOCH":63939,"BSTAR":0.0002840785,"MEAN_MOTION_DOT":2.49e-6,"MEAN_MOTION_DDOT":0},{"OBJECT_NAME":"FENGYUN 1C DEB","OBJECT_ID":"1999-025EEM","EPOCH":"2026-04-25T03:23:33.052992","MEAN_MOTION":14.55616069,"ECCENTRICITY":0.00421583,"INCLINATION":99.1455,"RA_OF_ASC_NODE":238.5402,"ARG_OF_PERICENTER":130.7829,"MEAN_ANOMALY":353.8111,"EPHEMERIS_TYPE":0,"CLASSIFICATION_TYPE":"U","NORAD_CAT_ID":37053,"ELEMENT_SET_NO":999,"REV_AT_EPOCH":66977,"BSTAR":0.0012595833,"MEAN_MOTION_DOT":5.511e-5,"MEAN_MOTION_DDOT":0},{"OBJECT_NAME":"FENGYUN 1C DEB","OBJECT_ID":"1999-025EEN","EPOCH":"2026-04-18T04:53:08.149920","MEAN_MOTION":14.19647025,"ECCENTRICITY":0.01036154,"INCLINATION":98.5638,"RA_OF_ASC_NODE":91.4424,"ARG_OF_PERICENTER":99.7364,"MEAN_ANOMALY":261.5533,"EPHEMERIS_TYPE":0,"CLASSIFICATION_TYPE":"U","NORAD_CAT_ID":37054,"ELEMENT_SET_NO":999,"REV_AT_EPOCH":66223,"BSTAR":0.00020594891,"MEAN_MOTION_DOT":4.18e-6,"MEAN_MOTION_DDOT":0},{"OBJECT_NAME":"FENGYUN 1C DEB","OBJECT_ID":"1999-025EEQ","EPOCH":"2026-04-24T08:17:59.889984","MEAN_MOTION":14.51044461,"ECCENTRICITY":0.02675814,"INCLINATION":98.9665,"RA_OF_ASC_NODE":150.5829,"ARG_OF_PERICENTER":106.9075,"MEAN_ANOMALY":256.1638,"EPHEMERIS_TYPE":0,"CLASSIFICATION_TYPE":"U","NORAD_CAT_ID":37056,"ELEMENT_SET_NO":999,"REV_AT_EPOCH":67334,"BSTAR":0.00027504062,"MEAN_MOTION_DOT":1.67e-5,"MEAN_MOTION_DDOT":0},{"OBJECT_NAME":"FENGYUN 1C DEB","OBJECT_ID":"1999-025EER","EPOCH":"2026-04-24T06:25:58.302624","MEAN_MOTION":13.96318542,"ECCENTRICITY":0.0284832,"INCLINATION":98.9164,"RA_OF_ASC_NODE":130.1735,"ARG_OF_PERICENTER":134.0417,"MEAN_ANOMALY":228.4592,"EPHEMERIS_TYPE":0,"CLASSIFICATION_TYPE":"U","NORAD_CAT_ID":37057,"ELEMENT_SET_NO":999,"REV_AT_EPOCH":65447,"BSTAR":0.0004092,"MEAN_MOTION_DOT":7.52e-6,"MEAN_MOTION_DDOT":0},{"OBJECT_NAME":"FENGYUN 1C DEB","OBJECT_ID":"1999-025EEU","EPOCH":"2026-04-05T10:31:51.602880","MEAN_MOTION":14.00826984,"ECCENTRICITY":0.00803418,"INCLINATION":99.0761,"RA_OF_ASC_NODE":157.2009,"ARG_OF_PERICENTER":35.6092,"MEAN_ANOMALY":325.0396,"EPHEMERIS_TYPE":0,"CLASSIFICATION_TYPE":"U","NORAD_CAT_ID":37060,"ELEMENT_SET_NO":999,"REV_AT_EPOCH":64298,"BSTAR":0.00048556656,"MEAN_MOTION_DOT":7.01e-6,"MEAN_MOTION_DDOT":0},{"OBJECT_NAME":"FENGYUN 1C DEB","OBJECT_ID":"1999-025EEY","EPOCH":"2026-04-23T16:35:36.827808","MEAN_MOTION":14.18016338,"ECCENTRICITY":0.01040558,"INCLINATION":98.9069,"RA_OF_ASC_NODE":271.027,"ARG_OF_PERICENTER":87.3816,"MEAN_ANOMALY":273.9265,"EPHEMERIS_TYPE":0,"CLASSIFICATION_TYPE":"U","NORAD_CAT_ID":37064,"ELEMENT_SET_NO":999,"REV_AT_EPOCH":83404,"BSTAR":0.0020247873,"MEAN_MOTION_DOT":4.334e-5,"MEAN_MOTION_DDOT":0},{"OBJECT_NAME":"FENGYUN 1C DEB","OBJECT_ID":"1999-025EEZ","EPOCH":"2026-04-19T20:43:44.541408","MEAN_MOTION":13.59697301,"ECCENTRICITY":0.02938789,"INCLINATION":103.2832,"RA_OF_ASC_NODE":334.8022,"ARG_OF_PERICENTER":325.2857,"MEAN_ANOMALY":32.9398,"EPHEMERIS_TYPE":0,"CLASSIFICATION_TYPE":"U","NORAD_CAT_ID":37065,"ELEMENT_SET_NO":999,"REV_AT_EPOCH":23943,"BSTAR":0.0011253366,"MEAN_MOTION_DOT":1.037e-5,"MEAN_MOTION_DDOT":0},{"OBJECT_NAME":"FENGYUN 1C DEB","OBJECT_ID":"1999-025EFB","EPOCH":"2026-04-21T03:12:39.728160","MEAN_MOTION":14.02473111,"ECCENTRICITY":0.01444781,"INCLINATION":99.535,"RA_OF_ASC_NODE":63.508,"ARG_OF_PERICENTER":118.9402,"MEAN_ANOMALY":242.6338,"EPHEMERIS_TYPE":0,"CLASSIFICATION_TYPE":"U","NORAD_CAT_ID":37067,"ELEMENT_SET_NO":999,"REV_AT_EPOCH":59221,"BSTAR":0.0019420108,"MEAN_MOTION_DOT":3.228e-5,"MEAN_MOTION_DDOT":0},{"OBJECT_NAME":"FENGYUN 1C DEB","OBJECT_ID":"1999-025EFD","EPOCH":"2026-04-22T11:50:27.434976","MEAN_MOTION":13.38631211,"ECCENTRICITY":0.04207971,"INCLINATION":95.8486,"RA_OF_ASC_NODE":32.8059,"ARG_OF_PERICENTER":264.3297,"MEAN_ANOMALY":90.973,"EPHEMERIS_TYPE":0,"CLASSIFICATION_TYPE":"U","NORAD_CAT_ID":37069,"ELEMENT_SET_NO":999,"REV_AT_EPOCH":89457,"BSTAR":0.0009879981,"MEAN_MOTION_DOT":8.6e-6,"MEAN_MOTION_DDOT":0}]
