FENGYUN 1C DEB          
1 37028U 99025EDL 26114.50146252  .00002761  00000+0  12172-2 0  9994
2 37028  99.2447  33.8810 0034198  80.4204 280.0835 14.23941664623640
FENGYUN 1C DEB          
1 37036U 99025EDU 26114.70359597  .00000475  00000+0  30675-3 0  9992
2 37036  98.7242 107.0330 0124029  42.6050 318.4658 14.03732220656132
FENGYUN 1C DEB          
1 37042U 99025EEA 26104.10118014  .00007420  00000+0  95542-3 0  9990
2 37042  98.5931 236.9562 0047548   4.4205 355.7416 14.80615052746054
FENGYUN 1C DEB          
1 37044U 99025EEC 26115.72816338  .00006388  00000+0  27951-2 0  9996
2 37044  98.9607 218.6079 0504498 165.8885 195.6977 13.72469317856953
FENGYUN 1C DEB          
1 37046U 99025EEE 26105.29952072  .00000935  00000+0  41046-3 0  9999
2 37046  98.5355 121.2808 0048657 305.9426  53.7244 14.25295671659410
FENGYUN 1C DEB          
1 37047U 99025EEF 26110.36320964  .00002555  00000+0  18916-2 0  9992
2 37047  99.1231 164.7183 0232714 228.6776 129.4145 13.84130932638620
FENGYUN 1C DEB          
1 37048U 99025EEG 26111.43060365  .00000249  00000+0  28408-3 0  9994
2 37048  98.8751 326.9695 0253215 169.7737 312.9920 13.65249113639391
FENGYUN 1C DEB          
1 37053U 99025EEM 26115.14135478  .00005511  00000+0  12596-2 0  9997
2 37053  99.1455 238.5402 0042158 130.7829 353.8111 14.55616069669777
FENGYUN 1C DEB          
1 37054U 99025EEN 26108.20356655  .00000418  00000+0  20595-3 0  9999
2 37054  98.5638  91.4424 0103615  99.7364 261.5533 14.19647025662231
FENGYUN 1C DEB          
1 37056U 99025EEQ 26114.34583206  .00001670  00000+0  27504-3 0  9995
2 37056  98.9665 150.5829 0267581 106.9075 256.1638 14.51044461673347
FENGYUN 1C DEB          
1 37057U 99025EER 26114.26803591  .00000752  00000+0  40920-3 0  9996
2 37057  98.9164 130.1735 0284832 134.0417 228.4592 13.96318542654478
FENGYUN 1C DEB          
1 37060U 99025EEU 26095.43879170  .00000701  00000+0  48557-3 0  9991
2 37060  99.0761 157.2009 0080341  35.6092 325.0396 14.00826984642984
FENGYUN 1C DEB          
1 37064U 99025EEY 26113.69139847  .00004334  00000+0  20248-2 0  9996
2 37064  98.9069 271.0270 0104055  87.3816 273.9265 14.18016338834048
FENGYUN 1C DEB          
1 37065U 99025EEZ 26109.86370997  .00001037  00000+0  11253-2 0  9997
2 37065 103.2832 334.8022 0293878 325.2857  32.9398 13.59697301239432
FENGYUN 1C DEB          
1 37067U 99025EFB 26111.13379315  .00003228  00000+0  19420-2 0  9993
2 37067  99.5350  63.5080 0144478 118.9402 242.6338 14.02473111592212
FENGYUN 1C DEB          
1 37069U 99025EFD 26112.49337309  .00000860  00000+0  98800-3 0  9991
2 37069  95.8486  32.8059 0420797 264.3297  90.9730 13.38631211894576
